SEEDS II (CO-66)        
1 32791U 08021J   26068.92109284  .00023758  00000+0  84213-3 0  9995
2 32791  97.7519  62.3611 0001448 359.2618   0.8619 15.29097235972108
STARLINK-33580          
1 63711U 25087Q   26068.68070805  .00030302  00000+0  10311-2 0  9991
2 63711  53.1609 219.9243 0001108  45.9238 314.1853 15.30197084 49191
