[{"OBJECT_NAME":"SEEDS II (CO-66)","OBJECT_ID":"2008-021J","EPOCH":"2026-03-09T22:06:22.421376","MEAN_MOTION":15.29097236,"ECCENTRICITY":0.00014475,"INCLINATION":97.7519,"RA_OF_ASC_NODE":62.3611,"ARG_OF_PERICENTER":359.2618,"MEAN_ANOMALY":0.8619,"EPHEMERIS_TYPE":0,"CLASSIFICATION_TYPE":"U","NORAD_CAT_ID":32791,"ELEMENT_SET_NO":999,"REV_AT_EPOCH":97210,"BSTAR":0.00084213052,"MEAN_MOTION_DOT":0.00023758,"MEAN_MOTION_DDOT":0},{"OBJECT_NAME":"STARLINK-33580","OBJECT_ID":"2025-087Q","EPOCH":"2026-03-09T16:20:13.175520","MEAN_MOTION":15.30197084,"ECCENTRICITY":0.00011082,"INCLINATION":53.1609,"RA_OF_ASC_NODE":219.9243,"ARG_OF_PERICENTER":45.9238,"MEAN_ANOMALY":314.1853,"EPHEMERIS_TYPE":0,"CLASSIFICATION_TYPE":"U","NORAD_CAT_ID":63711,"ELEMENT_SET_NO":999,"REV_AT_EPOCH":4919,"BSTAR":0.0010311435,"MEAN_MOTION_DOT":0.00030302,"MEAN_MOTION_DDOT":0}]
